OBJECT_NAME,OBJECT_ID,EPOCH,MEAN_MOTION,ECCENTRICITY,INCLINATION,RA_OF_ASC_NODE,ARG_OF_PERICENTER,MEAN_ANOMALY,EPHEMERIS_TYPE,CLASSIFICATION_TYPE,NORAD_CAT_ID,ELEMENT_SET_NO,REV_AT_EPOCH,BSTAR,MEAN_MOTION_DOT,MEAN_MOTION_DDOT
SAUDISAT 1C (SO-50),2002-058C,2026-06-19T05:53:48.160320,14.83050851,.00751739,64.5512,122.6160,262.0965,97.1604,0,U,27607,999,26476,.10829451E-3,.77E-5,0
SAUDISAT 2,2004-025F,2026-06-18T22:51:14.953824,14.56684729,.0023538,98.5507,169.9798,292.5681,67.3025,0,U,28371,999,16600,.50287E-4,.175E-5,0
SAUDISAT 3,2007-012B,2026-06-19T02:16:26.156352,14.71426506,.00137504,98.1456,120.4967,217.3851,142.6399,0,U,31118,999,2802,.39040424E-4,.191E-5,0
PISAT,2016-059B,2026-06-18T23:35:42.762048,14.68985886,.00285407,97.8178,170.3587,196.9067,163.1191,0,U,41784,999,52000,.11674294E-3,.641E-5,0
FLYING LAPTOP,2017-042G,2026-06-19T07:38:43.872576,15.01156173,.00196509,97.4699,325.7687,114.7791,245.5481,0,U,42831,999,48677,.19330262E-3,.2429E-4,0
SALSAT,2020-068K,2026-06-18T23:26:50.722944,15.29820569,.000795,97.8853,173.1506,300.6759,59.3696,0,U,46495,999,31563,.2105E-3,.5999E-4,0
